ORBCOMM FM24            
1 25478U 98053D   26027.71148081  .00001635  00000+0  57293-3 0  9991
2 25478  45.0074 283.9896 0002612 302.0199  58.0396 14.38806118429778
ORBCOMM FM25            
1 25479U 98053E   26027.40978094  .00001767  00000+0  61570-3 0  9992
2 25479  45.0071 283.7283 0004979 302.2132  57.8233 14.38774969430026
ORBCOMM FM26            
1 25480U 98053F   26027.71456656  .00001487  00000+0  53658-3 0  9990
2 25480  45.0068 280.4395 0006945 315.3632  44.6656 14.37723882429957
ORBCOMM FM27            
1 25481U 98053G   26027.73943252  .00001794  00000+0  62403-3 0  9995
2 25481  45.0055 282.2781 0001534 333.8714  26.2057 14.38814432430000
ORBCOMM FM28            
1 25482U 98053H   26027.82251734  .00001547  00000+0  54322-3 0  9990
2 25482  45.0037 219.1181 0004126 354.2443   5.8357 14.38920754430708
ORBCOMM FM30            
1 25980U 99065A   26027.54004197  .00001900  00000+0  67050-3 0  9990
2 25980  45.0304 107.3297 0004389  53.3893 306.7359 14.37884221366734
ORBCOMM FM31            
1 25981U 99065B   26027.52400292  .00001731  00000+0  61607-3 0  9999
2 25981  45.0220 100.8524 0002140 100.8386 259.2704 14.37806300366289
ORBCOMM FM32            
1 25982U 99065C   26027.64882714  .00001931  00000+0  69462-3 0  9995
2 25982  45.0144 118.3368 0004508  86.3648 273.7715 14.36872332366879
